QIANFAN-33              
1 61566U 24185Q   25231.90096490  .00000313  00000+0  21701-3 0  9994
2 61566  88.9760  91.6305 0006181 342.5928  17.5036 13.96414451 53139
QIANFAN-34              
1 61567U 24185R   25231.90893401  .00000331  00000+0  20744-3 0  9998
2 61567  88.9739  91.3447 0005768 355.1337   4.9786 14.02168191 53265
QIANFAN-35              
1 61568U 24185S   25231.90330083  .00000606  00000+0  23997-3 0  9999
2 61568  88.9761  90.3776 0005173 320.4599  39.6217 14.27677236 53794
QIANFAN-36              
1 61569U 24185T   25231.88696828  .00000029  00000+0  23618-4 0  9999
2 61569  88.9749  93.0268 0007143  30.4961 329.6607 13.55547008 52367
QIANFAN-37              
1 62238U 24232B   25231.89574447  .00000062  00000+0  77781-4 0  9996
2 62238  88.9927  52.9331 0002617  85.6874 274.4576 13.50966588 83662
QIANFAN-38              
1 62239U 24232C   25231.92063417  .00000065  00000+0  81273-4 0  9995
2 62239  88.9934  52.8385 0015154 159.9729 200.2020 13.50964205 83725
QIANFAN-39              
1 62240U 24232D   25231.91838217  .00000168  00000+0  65077-4 0  9992
2 62240  88.9935  50.4477 0018490  94.3822 265.9484 14.25234200 85032
QIANFAN-40              
1 62241U 24232E   25231.87943998  .00000052  00000+0  62466-4 0  9992
2 62241  88.9962  52.3949 0013929 167.2182 192.9325 13.50960798 84081
